{"type": "FeatureCollection", "features": [{"type": "Feature", "geometry": {"type": "Point", "coordinates": [-88.09195566725384, 42.702814770811315]}, "properties": {"event_id": "5828b22d57b9e77a", "off_time": "Jul 27, 7:18 a.m.", "first_seen_at": "2026-07-27T12:45:43+00:00", "last_seen_at": "2026-07-27T12:49:34+00:00", "max_affected_customers": 2, "cause": "Not yet determined", "city": "kansasville", "county": "racine", "zip": "53139", "region": "southeast wi", "observations": 2, "still_active": true}}, {"type": "Feature", "geometry": {"type": "Point", "coordinates": [-87.9645107410024, 43.09413817606503]}, "properties": {"event_id": "b0eeb94d3658ce8f", "off_time": "Jul 27, 7:09 a.m.", "first_seen_at": "2026-07-27T12:45:43+00:00", "last_seen_at": "2026-07-27T12:49:34+00:00", "max_affected_customers": 1, "cause": "Not yet determined", "city": "milwaukee", "county": "milwaukee", "zip": "53216", "region": "southeast wi", "observations": 2, "still_active": true}}, {"type": "Feature", "geometry": {"type": "Point", "coordinates": [-87.93657325950738, 43.091744857464896]}, "properties": {"event_id": "fc452b8d4220beea", "off_time": "Jul 27, 5:26 a.m.", "first_seen_at": "2026-07-27T12:45:43+00:00", "last_seen_at": "2026-07-27T12:49:34+00:00", "max_affected_customers": 2760, "cause": "Not yet determined", "city": "milwaukee", "county": "milwaukee", "zip": "53221", "region": "southeast wi", "observations": 16, "still_active": true}}, {"type": "Feature", "geometry": {"type": "Point", "coordinates": [-87.93658479059665, 43.091840513683046]}, "properties": {"event_id": "7c2a39468a5c6d9e", "off_time": "Jul 27, 5:26 a.m.", "first_seen_at": "2026-07-27T12:45:43+00:00", "last_seen_at": "2026-07-27T12:49:34+00:00", "max_affected_customers": 7137, "cause": "Not yet determined", "city": "milwaukee", "county": "milwaukee", "zip": "53218", "region": "southeast wi", "observations": 26, "still_active": true}}, {"type": "Feature", "geometry": {"type": "Point", "coordinates": [-88.35068879049916, 43.69281681051819]}, "properties": {"event_id": "4e9b6b7f4094e7e3", "off_time": "Jul 27, 1:43 a.m.", "first_seen_at": "2026-07-27T12:45:43+00:00", "last_seen_at": "2026-07-27T12:49:34+00:00", "max_affected_customers": 2, "cause": "Transformer problem", "city": "eden", "county": "fond du lac", "zip": "53019", "region": "southeast wi", "observations": 2, "still_active": true}}, {"type": "Feature", "geometry": {"type": "Point", "coordinates": [-87.91681980770092, 43.07809879622156]}, "properties": {"event_id": "da2cd26b50903fff", "off_time": "Jul 27, 6:25 a.m.", "first_seen_at": "2026-07-27T12:45:43+00:00", "last_seen_at": "2026-07-27T12:49:34+00:00", "max_affected_customers": 1, "cause": "Not yet determined", "city": "milwaukee", "county": "milwaukee", "zip": "53212", "region": "southeast wi", "observations": 2, "still_active": true}}, {"type": "Feature", "geometry": {"type": "Point", "coordinates": [-87.9415303405904, 43.02148845316987]}, "properties": {"event_id": "23e59b66d89ede0d", "off_time": "Jul 27, 7:38 a.m.", "first_seen_at": "2026-07-27T12:45:43+00:00", "last_seen_at": "2026-07-27T12:49:34+00:00", "max_affected_customers": 1, "cause": "Not yet determined", "city": "milwaukee", "county": "milwaukee", "zip": "53204", "region": "southeast wi", "observations": 2, "still_active": true}}, {"type": "Feature", "geometry": {"type": "Point", "coordinates": [-87.91290765268538, 43.085689455708476]}, "properties": {"event_id": "d15e05dd733f09b9", "off_time": "Jul 27, 7:38 a.m.", "first_seen_at": "2026-07-27T12:45:43+00:00", "last_seen_at": "2026-07-27T12:49:34+00:00", "max_affected_customers": 1, "cause": "Not yet determined", "city": "milwaukee", "county": "milwaukee", "zip": "53212", "region": "southeast wi", "observations": 2, "still_active": true}}, {"type": "Feature", "geometry": {"type": "Point", "coordinates": [-87.93623954110878, 43.08825587697325]}, "properties": {"event_id": "6256b0ead6cbb875", "off_time": "Jul 27, 7:12 a.m.", "first_seen_at": "2026-07-27T12:45:43+00:00", "last_seen_at": "2026-07-27T12:49:34+00:00", "max_affected_customers": 1, "cause": "Not yet determined", "city": "milwaukee", "county": "milwaukee", "zip": "53206", "region": "southeast wi", "observations": 2, "still_active": true}}, {"type": "Feature", "geometry": {"type": "Point", "coordinates": [-87.7794203557118, 42.76469726235714]}, "properties": {"event_id": "2f089e9884708d17", "off_time": "Jul 27, 5:54 a.m.", "first_seen_at": "2026-07-27T12:45:43+00:00", "last_seen_at": "2026-07-27T12:49:34+00:00", "max_affected_customers": 6, "cause": "We Energies equipment problem", "city": "racine", "county": "racine", "zip": "53402", "region": "southeast wi", "observations": 2, "still_active": true}}, {"type": "Feature", "geometry": {"type": "Point", "coordinates": [-88.01881363861388, 43.422069133606456]}, "properties": {"event_id": "f0106bd48ba064b7", "off_time": "Jul 27, 6:53 a.m.", "first_seen_at": "2026-07-27T12:45:43+00:00", "last_seen_at": "2026-07-27T12:49:34+00:00", "max_affected_customers": 1, "cause": "Not yet determined", "city": "west bend", "county": "ozaukee", "zip": "53095", "region": "southeast wi", "observations": 2, "still_active": true}}, {"type": "Feature", "geometry": {"type": "Point", "coordinates": [-87.96631343328863, 43.087339381311374]}, "properties": {"event_id": "dc5a103e629174b0", "off_time": "Jul 27, 6:29 a.m.", "first_seen_at": "2026-07-27T12:45:43+00:00", "last_seen_at": "2026-07-27T12:49:34+00:00", "max_affected_customers": 1, "cause": "Not yet determined", "city": "milwaukee", "county": "milwaukee", "zip": "53216", "region": "southeast wi", "observations": 2, "still_active": true}}, {"type": "Feature", "geometry": {"type": "Point", "coordinates": [-87.90717063148955, 43.071975149704514]}, "properties": {"event_id": "7aacda6fff197c10", "off_time": "Jul 27, 6:26 a.m.", "first_seen_at": "2026-07-27T12:45:43+00:00", "last_seen_at": "2026-07-27T12:49:34+00:00", "max_affected_customers": 1, "cause": "Not yet determined", "city": "milwaukee", "county": "milwaukee", "zip": "53212", "region": "southeast wi", "observations": 2, "still_active": true}}]}